OBJECT_NAME,OBJECT_ID,EPOCH,MEAN_MOTION,ECCENTRICITY,INCLINATION,RA_OF_ASC_NODE,ARG_OF_PERICENTER,MEAN_ANOMALY,EPHEMERIS_TYPE,CLASSIFICATION_TYPE,NORAD_CAT_ID,ELEMENT_SET_NO,REV_AT_EPOCH,BSTAR,MEAN_MOTION_DOT,MEAN_MOTION_DDOT
DUBAISAT-1,2009-041B,2026-07-04T15:46:36.682464,14.75155703,.00107473,98.0075,318.7258,22.2616,337.9058,0,U,35682,999,90767,.20460577E-3,.1331E-4,0
OCEANSAT-2,2009-051A,2026-07-04T22:16:25.567680,13.99658415,.00166427,98.2318,171.0086,183.3512,176.7546,0,U,35931,999,88181,-.11540724E-3,-.206E-5,0
WORLDVIEW-2 (WV-2),2009-055A,2026-07-04T21:47:49.795008,14.37905031,.00048199,98.4760,259.1160,155.6240,204.5176,0,U,35946,999,87819,.75070511E-4,.183E-5,0
SMOS,2009-059A,2026-07-04T06:50:58.280064,14.39782165,.00013014,98.4427,12.3699,86.9741,273.1596,0,U,36036,999,87591,.11087677E-3,.304E-5,0
YAOGAN-7,2009-069A,2026-07-04T10:04:25.391712,14.78027757,.00242897,98.0049,71.1787,347.1078,12.9509,0,U,36110,999,89217,.89957282E-4,.599E-5,0
TANDEM-X,2010-030A,2026-07-04T10:46:52.536288,15.19148557,.0001666,97.4453,192.9091,88.7916,271.3510,0,U,36605,999,88926,.31545974E-4,.595E-5,0
CARTOSAT-2B,2010-035A,2026-07-05T00:02:21.176736,14.78606446,.00122352,97.9939,236.4371,128.5554,231.6755,0,U,36795,999,86248,.54428879E-4,.346E-5,0
YAOGAN-10,2010-038A,2026-07-05T00:00:17.728416,14.85405462,.00015877,97.8968,209.2623,86.7754,332.2055,0,U,36834,999,85985,.30454256E-3,.2569E-4,0
COSMO-SKYMED 4,2010-060A,2026-07-04T23:54:56.009376,14.82160330,.00014592,97.8888,9.3377,85.4992,274.6388,0,U,37216,999,84720,.95174525E-4,.706E-5,0
RESOURCESAT-2,2011-015A,2026-07-04T18:07:21.294048,14.21604534,.00109709,98.7636,253.0750,201.0717,159.0010,0,U,37387,999,78867,.8703065E-4,.147E-5,0
HAIYANG-2A,2011-043A,2026-07-04T22:48:22.623840,13.73780517,.00041445,99.3395,188.2253,57.4551,302.6998,0,U,37781,999,74909,-.48328185E-4,-.89E-6,0
RASAT,2011-044D,2026-07-04T23:24:45.913824,14.68183970,.00215188,98.0581,277.1013,133.2758,342.2288,0,U,37791,999,79579,.95534605E-4,.503E-5,0
SRMSAT,2011-058D,2026-07-04T16:11:13.217856,14.11579530,.00118514,19.9730,313.6268,36.6009,351.4175,0,U,37841,999,76029,.85792093E-4,.423E-5,0
PLEIADES 1A,2011-076F,2026-07-04T23:20:46.055328,14.58541627,.00017551,98.1971,260.8364,85.8583,31.1844,0,U,38012,999,77458,.51733074E-4,.195E-5,0
ZIYUAN 1-02C (ZY 1-02C),2011-079A,2026-07-04T23:07:11.945280,14.38228734,.00051577,98.4062,252.9000,251.4564,212.5074,0,U,38038,999,76176,.11473863E-3,.306E-5,0
ARIRANG-3 (KOMPSAT-3),2012-025B,2026-07-04T23:04:27.596928,14.62222912,.00066927,98.1179,143.1155,65.1080,295.0817,0,U,38338,999,75394,.12128023E-3,.565E-5,0
EXACTVIEW-1 (ADS-1B),2012-039C,2026-07-04T19:04:22.189728,14.24990346,.00118571,98.9797,303.5843,118.7722,241.4649,0,U,38709,999,72521,.10412996E-3,.197E-5,0
SPOT 6,2012-047A,2026-07-04T23:10:44.743296,14.58533075,.00012257,98.2110,253.0663,78.5815,281.5522,0,U,38755,999,73564,.59376461E-4,.23E-5,0
PLEIADES 1B,2012-068A,2026-07-04T23:37:35.965920,14.58571090,.00016981,98.1941,260.7910,83.6655,276.4738,0,U,39019,999,72344,.48633994E-4,.18E-5,0
GOKTURK 2,2012-073A,2026-07-04T23:35:59.534880,14.75562659,.00009846,97.6809,22.5217,68.6384,291.4931,0,U,39030,999,72713,.16092032E-3,.1049E-4,0
LANDSAT 8,2013-008A,2026-07-04T16:09:02.096352,14.57107348,.00013543,98.2295,255.6000,93.7255,266.4098,0,U,39084,999,70044,.11776089E-3,.485E-5,0
SARAL,2013-009A,2026-07-04T22:01:10.926048,14.32893426,.00010625,98.5554,12.2605,198.4301,161.6845,0,U,39086,999,69814,-.2210061E-5,-.5E-6,0
GAOFEN-1,2013-018A,2026-07-04T22:53:11.892768,14.76508499,.0016201,97.9087,257.6602,204.7932,155.2501,0,U,39150,999,71086,.7028606E-4,.44E-5,0
VNREDSAT 1,2013-021B,2026-07-04T23:38:55.324320,14.64875425,.00016982,97.9067,238.7181,82.9704,277.1692,0,U,39160,999,70289,.10426169E-3,.512E-5,0
ARIRANG-5 (KOMPSAT-5),2013-042A,2026-07-04T23:46:04.136160,15.04553348,.000531,97.6209,12.4394,79.5519,280.6305,0,U,39227,999,70653,.16571062E-3,.2263E-4,0
SKYSAT-A,2013-066C,2026-07-04T14:01:57.871776,15.13075476,.00197427,97.3800,234.4277,252.4164,107.4911,0,U,39418,999,69111,.25040804E-3,.4386E-4,0
DUBAISAT-2,2013-066D,2026-07-04T23:02:22.470720,15.10321072,.00102427,97.4578,175.6400,342.4033,17.6841,0,U,39419,999,68907,.29438995E-3,.4768E-4,0
GPM-CORE,2014-009C,2026-07-04T13:26:12.319584,15.44943076,.00112105,64.9705,249.9296,258.4433,101.5449,0,U,39574,999,70049,.37187961E-3,.17428E-3,0
SENTINEL-1A,2014-016A,2026-07-04T23:46:05.261088,14.59199055,.00013677,98.1778,193.2630,85.9516,274.1840,0,U,39634,999,65261,-.54007004E-4,-.3E-5,0
KAZEOSAT 1,2014-024A,2026-07-03T22:50:10.114944,14.42086207,.0001156,98.3202,256.9818,78.7649,281.3671,0,U,39731,999,64097,.36168555E-4,.76E-6,0
