DUBAISAT-1              
1 35682U 09041B   26185.65736901  .00001331  00000+0  20461-3 0  9990
2 35682  98.0075 318.7258 0010747  22.2616 337.9058 14.75155703907679
OCEANSAT-2              
1 35931U 09051A   26185.92807370 -.00000206  00000+0 -11541-3 0  9998
2 35931  98.2318 171.0086 0016642 183.3512 176.7546 13.99658415881812
WORLDVIEW-2 (WV-2)      
1 35946U 09055A   26185.90821522  .00000183  00000+0  75071-4 0  9992
2 35946  98.4760 259.1160 0004819 155.6240 204.5176 14.37905031878193
SMOS                    
1 36036U 09059A   26185.28539676  .00000304  00000+0  11088-3 0  9996
2 36036  98.4427  12.3699 0001301  86.9741 273.1596 14.39782165875913
YAOGAN-7                
1 36110U 09069A   26185.41973833  .00000599  00000+0  89957-4 0  9999
2 36110  98.0049  71.1787 0024289 347.1078  12.9509 14.78027757892170
TANDEM-X                
1 36605U 10030A   26185.44921917  .00000595  00000+0  31546-4 0  9994
2 36605  97.4453 192.9091 0001666  88.7916 271.3510 15.19148557889261
CARTOSAT-2B             
1 36795U 10035A   26186.00163399  .00000346  00000+0  54429-4 0  9993
2 36795  97.9939 236.4371 0012235 128.5554 231.6755 14.78606446862480
YAOGAN-10               
1 36834U 10038A   26186.00020519  .00002569  00000+0  30454-3 0  9996
2 36834  97.8968 209.2623 0001587  86.7754 332.2055 14.85405462859859
COSMO-SKYMED 4          
1 37216U 10060A   26185.99648159  .00000706  00000+0  95175-4 0  9992
2 37216  97.8888   9.3377 0001459  85.4992 274.6388 14.82160330847201
RESOURCESAT-2           
1 37387U 11015A   26185.75510757  .00000147  00000+0  87031-4 0  9999
2 37387  98.7636 253.0750 0010970 201.0717 159.0010 14.21604534788678
HAIYANG-2A              
1 37781U 11043A   26185.95026185 -.00000089  00000+0 -48328-4 0  9990
2 37781  99.3395 188.2253 0004144  57.4551 302.6998 13.73780517749093
RASAT                   
1 37791U 11044D   26185.97553141  .00000503  00000+0  95535-4 0  9992
2 37791  98.0581 277.1013 0021518 133.2758 342.2288 14.68183970795790
SRMSAT                  
1 37841U 11058D   26185.67445854  .00000423  00000+0  85792-4 0  9996
2 37841  19.9730 313.6268 0011851  36.6009 351.4175 14.11579530760299
PLEIADES 1A             
1 38012U 11076F   26185.97275527  .00000195  00000+0  51733-4 0  9992
2 38012  98.1971 260.8364 0001755  85.8583  31.1844 14.58541627774580
ZIYUAN 1-02C (ZY 1-02C) 
1 38038U 11079A   26185.96333270  .00000306  00000+0  11474-3 0  9993
2 38038  98.4062 252.9000 0005157 251.4564 212.5074 14.38228734761766
ARIRANG-3 (KOMPSAT-3)   
1 38338U 12025B   26185.96143052  .00000565  00000+0  12128-3 0  9999
2 38338  98.1179 143.1155 0006692  65.1080 295.0817 14.62222912753946
EXACTVIEW-1 (ADS-1B)    
1 38709U 12039C   26185.79470127  .00000197  00000+0  10413-3 0  9999
2 38709  98.9797 303.5843 0011857 118.7722 241.4649 14.24990346725213
SPOT 6                  
1 38755U 12047A   26185.96579564  .00000230  00000+0  59376-4 0  9993
2 38755  98.2110 253.0663 0001225  78.5815 281.5522 14.58533075735641
PLEIADES 1B             
1 39019U 12068A   26185.98444405  .00000180  00000+0  48634-4 0  9996
2 39019  98.1941 260.7910 0001698  83.6655 276.4738 14.58571090723445
GOKTURK 2               
1 39030U 12073A   26185.98332795  .00001049  00000+0  16092-3 0  9990
2 39030  97.6809  22.5217 0000984  68.6384 291.4931 14.75562659727130
LANDSAT 8               
1 39084U 13008A   26185.67294093  .00000485  00000+0  11776-3 0  9999
2 39084  98.2295 255.6000 0001354  93.7255 266.4098 14.57107348700443
SARAL                   
1 39086U 13009A   26185.91748757 -.00000050  00000+0 -22101-5 0  9996
2 39086  98.5554  12.2605 0001062 198.4301 161.6845 14.32893426698146
GAOFEN-1                
1 39150U 13018A   26185.95360987  .00000440  00000+0  70286-4 0  9994
2 39150  97.9087 257.6602 0016201 204.7932 155.2501 14.76508499710869
VNREDSAT 1              
1 39160U 13021B   26185.98536255  .00000512  00000+0  10426-3 0  9994
2 39160  97.9067 238.7181 0001698  82.9704 277.1692 14.64875425702899
ARIRANG-5 (KOMPSAT-5)   
1 39227U 13042A   26185.99032565  .00002263  00000+0  16571-3 0  9999
2 39227  97.6209  12.4394 0005310  79.5519 280.6305 15.04553348706539
SKYSAT-A                
1 39418U 13066C   26185.58469759  .00004386  00000+0  25041-3 0  9991
2 39418  97.3800 234.4277 0019742 252.4164 107.4911 15.13075476691110
DUBAISAT-2              
1 39419U 13066D   26185.95998230  .00004768  00000+0  29439-3 0  9993
2 39419  97.4578 175.6400 0010242 342.4033  17.6841 15.10321072689078
GPM-CORE                
1 39574U 14009C   26185.55986481  .00017428  00000+0  37188-3 0  9991
2 39574  64.9705 249.9296 0011210 258.4433 101.5449 15.44943076700493
SENTINEL-1A             
1 39634U 14016A   26185.99033867 -.00000300  00000+0 -54007-4 0  9998
2 39634  98.1778 193.2630 0001367  85.9516 274.1840 14.59199055652616
KAZEOSAT 1              
1 39731U 14024A   26184.95150596  .00000076  00000+0  36169-4 0  9996
2 39731  98.3202 256.9818 0001156  78.7649 281.3671 14.42086207640970
